[Satellite]
VERSION=1.1
NAME=NUSAT 1 (LO-87)
NICKNAME=NUSAT 1 (LO-87)
TLE1=1 41557U 16033B   19317.84649921  .00001285  00000-0  50358-4 0  9990
TLE2=2 41557  97.4139  44.4736 0014996 130.2840 229.9713 15.27525054192700
STATUS=0
